0 SL-8 R/B
1 09613U 76122B   13281.15903572  .00000181  00000-0  16576-3 0    16
2 09613 082.9522 073.2322 0031618 104.1953 303.9971 13.77285603849724
0 SL-8 R/B
1 09613U 76122B   13283.48070030  .00000129  00000-0  11383-3 0    22
2 09613 082.9525 071.5077 0031614 097.9885 295.0434 13.77286624850040
0 SL-8 R/B
1 09613U 76122B   13285.83300310  .00000020  00000-0  44813-5 0    37
2 09613 082.9530 069.7607 0031589 091.7226 077.9767 13.77286350850363
0 SL-8 R/B
1 09613U 76122B   13287.93559469  .00000018  00000-0  27409-5 0    41
2 09613 082.9535 068.1991 0031524 086.0899 062.8529 13.77286372850654
0 SL-8 R/B
1 09613U 76122B   13290.45451779  .00000097  00000-0  81662-4 0    55
2 09613 082.9540 066.3289 0031400 079.2661 312.0273 13.77286875851008
0 SL-8 R/B
1 09613U 76122B   13292.49112081  .00000143  00000-0  12785-3 0    63
2 09613 082.9543 064.8168 0031334 073.7324 329.8103 13.77287342851289
0 SL-8 R/B
1 09613U 76122B   13294.82867522  .00000148  00000-0  13328-3 0    79
2 09613 082.9545 063.0813 0031278 067.4636 039.6752 13.77287931851608
